APRIZESAT 2             
1 28366U 04025A   22295.16448728  .00000143  00000+0  59278-4 0  9998
2 28366  98.1446 157.7143 0106619 314.5382  44.7134 14.36858113960015
SAUDICOMSAT 1           
1 28369U 04025D   22295.43304067  .00000367  00000+0  99928-4 0  9992
2 28369  98.4576 257.9687 0034077 144.3366 216.0115 14.52885342970285
SAUDICOMSAT 2           
1 28370U 04025E   22295.36458546  .00000386  00000+0  11504-3 0  9992
2 28370  98.5492 257.2294 0057221 338.5260  21.3532 14.47779206966996
APRIZESAT 1             
1 28372U 04025G   22295.44954088  .00000240  00000+0  73729-4 0  9992
2 28372  98.5102 257.4169 0045077 248.7827 110.8549 14.49871213968500
NANOSAT-1               
1 28493U 04049B   22295.24111151  .00000799  00000+0  12885-3 0  9990
2 28493  98.1174  36.1510 0003371 239.7343 120.3532 14.74175369958543
SAUDICOMSAT 7           
1 31119U 07012C   22295.36616651  .00000615  00000+0  12857-3 0  9996
2 31119  98.1971 240.1057 0060814  54.5045 306.1809 14.62211100827252
SAUDICOMSAT 6           
1 31121U 07012E   22295.32024134  .00000380  00000+0  87986-4 0  9999
2 31121  98.2365 235.3317 0076569 157.1264 203.3377 14.58985509825448
SAUDICOMSAT 5           
1 31124U 07012H   22295.35151884  .00000722  00000+0  14482-3 0  9998
2 31124  98.1664 241.5629 0051311   0.5969 359.5285 14.63952983828157
SAUDICOMSAT 3           
1 31125U 07012J   22295.32017266  .00000762  00000+0  14711-3 0  9990
2 31125  98.1324 242.8802 0041764 305.4359  54.2948 14.65799882829097
SAUDICOMSAT 4           
1 31127U 07012L   22295.36289675  .00000493  00000+0  10763-3 0  9995
2 31127  98.2194 238.5133 0068901 102.8248 258.0662 14.60715997826401
APRIZESAT 4             
1 35684U 09041D   22295.56626970  .00000602  00000+0  86418-4 0  9999
2 35684  98.3078 313.5582 0045589 304.9372  54.7560 14.79792006713912
APRIZESAT 3             
1 35686U 09041F   22295.25568468  .00001239  00000+0  13449-3 0  9994
2 35686  98.1039  24.7358 0072773 131.2930 229.4582 14.88168420717463
AISSAT 1                
1 36797U 10035C   22295.47720177  .00001488  00000+0  17091-3 0  9997
2 36797  98.2378 124.1503 0011948 114.3961 245.8502 14.87418894665327
S-NET D                 
1 43186U 18014G   22295.53459197  .00002336  00000+0  20060-3 0  9993
2 43186  97.6452 198.7926 0009773 225.1538 134.8891 14.98386502257948
S-NET B                 
1 43187U 18014H   22295.46812690  .00002352  00000+0  20195-3 0  9994
2 43187  97.6447 198.6728 0009773 225.1824 134.8605 14.98383445257935
S-NET A                 
1 43188U 18014J   22295.53521710  .00002364  00000+0  20293-3 0  9995
2 43188  97.6452 198.8093 0009753 224.9762 135.0671 14.98383930257941
S-NET C                 
1 43189U 18014K   22295.26904935  .00002227  00000+0  19156-3 0  9994
2 43189  97.6447 198.4644 0009707 225.5644 134.4785 14.98378490256458
SALSAT                  
1 46495U 20068K   22295.37309344  .00002744  00000+0  19679-3 0  9998
2 46495  97.7409 236.8134 0015459 200.9902 159.0691 15.05119620113274
